{"type": "FeatureCollection", "features": [ {"type": "Feature", "properties": {"norad_id": 17070, "name": "POLAR BEAR", "group": "nnss", "lat": -59.12279910403608, "lon": -177.22264883434656, "alt_km": 1014.9537871340099, "timestamp": "2025-12-21T14:40:48.185179+00:00", "meta": {"OBJECT_NAME": "POLAR BEAR", "OBJECT_ID": "1986-088A", "EPOCH": "2025-12-21T01:34:32.857248", "MEAN_MOTION": 13.75252457, "ECCENTRICITY": 0.00412794, "INCLINATION": 89.617, "RA_OF_ASC_NODE": 183.4403, "ARG_OF_PERICENTER": 95.2642, "MEAN_ANOMALY": 24.2916, "EPHEMERIS_TYPE": 0, "CLASSIFICATION_TYPE": "U", "NORAD_CAT_ID": 17070, "ELEMENT_SET_NO": 999, "REV_AT_EPOCH": 96093, "BSTAR": 8.8420233e-05, "MEAN_MOTION_DOT": 9.7e-07, "MEAN_MOTION_DDOT": 0}, "tle": {"line1": "1 17070U 86088A   25355.06565807  .00000097  00000+0  88420-4 0  9993", "line2": "2 17070  89.6170 183.4403 0041279  95.2642  24.2916 13.75252457960934"}}, "geometry": {"type": "Point", "coordinates": [-177.22264883434656, -59.12279910403608]}}, {"type": "Feature", "properties": {"norad_id": 18361, "name": "OSCAR 27", "group": "nnss", "lat": -48.194628719400534, "lon": 80.02246473719532, "alt_km": 1128.328917032506, "timestamp": "2025-12-21T14:40:48.185189+00:00", "meta": {"OBJECT_NAME": "OSCAR 27", "OBJECT_ID": "1987-080A", "EPOCH": "2025-12-21T04:12:33.527520", "MEAN_MOTION": 13.44908294, "ECCENTRICITY": 0.01036047, "INCLINATION": 90.3739, "RA_OF_ASC_NODE": 79.5878, "ARG_OF_PERICENTER": 199.4724, "MEAN_ANOMALY": 160.2454, "EPHEMERIS_TYPE": 0, "CLASSIFICATION_TYPE": "U", "NORAD_CAT_ID": 18361, "ELEMENT_SET_NO": 999, "REV_AT_EPOCH": 87670, "BSTAR": 0.00014990466, "MEAN_MOTION_DOT": 9.9e-07, "MEAN_MOTION_DDOT": 0}, "tle": {"line1": "1 18361U 87080A   25355.17538805  .00000099  00000+0  14990-3 0  9992", "line2": "2 18361  90.3739  79.5878 0103604 199.4724 160.2454 13.44908294876700"}}, "geometry": {"type": "Point", "coordinates": [80.02246473719532, -48.194628719400534]}}, {"type": "Feature", "properties": {"norad_id": 18362, "name": "OSCAR 29", "group": "nnss", "lat": -50.51196203861279, "lon": 80.51921793792785, "alt_km": 1096.3147813096066, "timestamp": "2025-12-21T14:40:48.185199+00:00", "meta": {"OBJECT_NAME": "OSCAR 29", "OBJECT_ID": "1987-080B", "EPOCH": "2025-12-21T04:17:34.545120", "MEAN_MOTION": 13.44449861, "ECCENTRICITY": 0.0104446, "INCLINATION": 90.3751, "RA_OF_ASC_NODE": 80.0475, "ARG_OF_PERICENTER": 222.704, "MEAN_ANOMALY": 152.1595, "EPHEMERIS_TYPE": 0, "CLASSIFICATION_TYPE": "U", "NORAD_CAT_ID": 18362, "ELEMENT_SET_NO": 999, "REV_AT_EPOCH": 87623, "BSTAR": 0.00014493849, "MEAN_MOTION_DOT": 9.5e-07, "MEAN_MOTION_DDOT": 0}, "tle": {"line1": "1 18362U 87080B   25355.17887205  .00000095  00000+0  14494-3 0  9999", "line2": "2 18362  90.3751  80.0475 0104446 222.7040 152.1595 13.44449861876235"}}, "geometry": {"type": "Point", "coordinates": [80.51921793792785, -50.51196203861279]}}, {"type": "Feature", "properties": {"norad_id": 19070, "name": "OSCAR 23", "group": "nnss", "lat": -85.77359398090994, "lon": 21.00844562410895, "alt_km": 1229.8277866280123, "timestamp": "2025-12-21T14:40:48.185210+00:00", "meta": {"OBJECT_NAME": "OSCAR 23", "OBJECT_ID": "1988-033A", "EPOCH": "2025-12-21T02:46:39.852192", "MEAN_MOTION": 13.27788505, "ECCENTRICITY": 0.01902215, "INCLINATION": 90.3203, "RA_OF_ASC_NODE": 16.652, "ARG_OF_PERICENTER": 156.671, "MEAN_ANOMALY": 266.4478, "EPHEMERIS_TYPE": 0, "CLASSIFICATION_TYPE": "U", "NORAD_CAT_ID": 19070, "ELEMENT_SET_NO": 999, "REV_AT_EPOCH": 82364, "BSTAR": 0.00012247985, "MEAN_MOTION_DOT": 7e-07, "MEAN_MOTION_DDOT": 0}, "tle": {"line1": "1 19070U 88033A   25355.11573903  .00000070  00000+0  12248-3 0  9994", "line2": "2 19070  90.3203  16.6520 0190221 156.6710 266.4478 13.27788505823643"}}, "geometry": {"type": "Point", "coordinates": [21.00844562410895, -85.77359398090994]}}, {"type": "Feature", "properties": {"norad_id": 19071, "name": "OSCAR 32", "group": "nnss", "lat": 25.883877124917294, "lon": 16.644083526053873, "alt_km": 1214.3285690356333, "timestamp": "2025-12-21T14:40:48.185220+00:00", "meta": {"OBJECT_NAME": "OSCAR 32", "OBJECT_ID": "1988-033B", "EPOCH": "2025-12-21T07:22:19.333344", "MEAN_MOTION": 13.27955297, "ECCENTRICITY": 0.01890015, "INCLINATION": 90.3209, "RA_OF_ASC_NODE": 16.7904, "ARG_OF_PERICENTER": 143.0548, "MEAN_ANOMALY": 230.0221, "EPHEMERIS_TYPE": 0, "CLASSIFICATION_TYPE": "U", "NORAD_CAT_ID": 19071, "ELEMENT_SET_NO": 999, "REV_AT_EPOCH": 82379, "BSTAR": 0.00015041651, "MEAN_MOTION_DOT": 8.5e-07, "MEAN_MOTION_DDOT": 0}, "tle": {"line1": "1 19071U 88033B   25355.30716821  .00000085  00000+0  15042-3 0  9995", "line2": "2 19071  90.3209  16.7904 0189001 143.0548 230.0221 13.27955297823793"}}, "geometry": {"type": "Point", "coordinates": [16.644083526053873, 25.883877124917294]}}, {"type": "Feature", "properties": {"norad_id": 19223, "name": "NOVA 2", "group": "nnss", "lat": 65.39910253524152, "lon": 78.29003909539375, "alt_km": 1160.5844133135151, "timestamp": "2025-12-21T14:40:48.185230+00:00", "meta": {"OBJECT_NAME": "NOVA 2", "OBJECT_ID": "1988-052A", "EPOCH": "2025-12-21T05:21:32.707872", "MEAN_MOTION": 13.22936696, "ECCENTRICITY": 0.00298717, "INCLINATION": 89.9869, "RA_OF_ASC_NODE": 78.2619, "ARG_OF_PERICENTER": 353.4759, "MEAN_ANOMALY": 23.0527, "EPHEMERIS_TYPE": 0, "CLASSIFICATION_TYPE": "U", "NORAD_CAT_ID": 19223, "ELEMENT_SET_NO": 999, "REV_AT_EPOCH": 81060, "BSTAR": 9.6528432e-05, "MEAN_MOTION_DOT": 4.9e-07, "MEAN_MOTION_DDOT": 0}, "tle": {"line1": "1 19223U 88052A   25355.22329523  .00000049  00000+0  96528-4 0  9994", "line2": "2 19223  89.9869  78.2619 0029871 353.4759  23.0527 13.22936696810605"}}, "geometry": {"type": "Point", "coordinates": [78.29003909539375, 65.39910253524152]}}, {"type": "Feature", "properties": {"norad_id": 19419, "name": "OSCAR 25", "group": "nnss", "lat": 49.0166754138745, "lon": 20.23413811678516, "alt_km": 1165.2476399960888, "timestamp": "2025-12-21T14:40:48.185240+00:00", "meta": {"OBJECT_NAME": "OSCAR 25", "OBJECT_ID": "1988-074A", "EPOCH": "2025-12-21T02:00:29.261664", "MEAN_MOTION": 13.4262484, "ECCENTRICITY": 0.00949094, "INCLINATION": 90.0339, "RA_OF_ASC_NODE": 20.2714, "ARG_OF_PERICENTER": 221.6823, "MEAN_ANOMALY": 157.0344, "EPHEMERIS_TYPE": 0, "CLASSIFICATION_TYPE": "U", "NORAD_CAT_ID": 19419, "ELEMENT_SET_NO": 999, "REV_AT_EPOCH": 82752, "BSTAR": 0.00013959585, "MEAN_MOTION_DOT": 9e-07, "MEAN_MOTION_DDOT": 0}, "tle": {"line1": "1 19419U 88074A   25355.08367201  .00000090  00000+0  13960-3 0  9998", "line2": "2 19419  90.0339  20.2714 0094909 221.6823 157.0344 13.42624840827523"}}, "geometry": {"type": "Point", "coordinates": [20.23413811678516, 49.0166754138745]}}, {"type": "Feature", "properties": {"norad_id": 19420, "name": "OSCAR 31", "group": "nnss", "lat": -67.2127155717678, "lon": 20.70850660966423, "alt_km": 1092.4986768329873, "timestamp": "2025-12-21T14:40:48.185250+00:00", "meta": {"OBJECT_NAME": "OSCAR 31", "OBJECT_ID": "1988-074B", "EPOCH": "2025-12-21T02:52:01.471008", "MEAN_MOTION": 13.42586063, "ECCENTRICITY": 0.00932797, "INCLINATION": 90.0353, "RA_OF_ASC_NODE": 20.6227, "ARG_OF_PERICENTER": 215.7177, "MEAN_ANOMALY": 218.4862, "EPHEMERIS_TYPE": 0, "CLASSIFICATION_TYPE": "U", "NORAD_CAT_ID": 19420, "ELEMENT_SET_NO": 999, "REV_AT_EPOCH": 82763, "BSTAR": 0.00013484728, "MEAN_MOTION_DOT": 8.7e-07, "MEAN_MOTION_DDOT": 0}, "tle": {"line1": "1 19420U 88074B   25355.11946147  .00000087  00000+0  13485-3 0  9994", "line2": "2 19420  90.0353  20.6227 0093279 215.7177 218.4862 13.42586063827632"}}, "geometry": {"type": "Point", "coordinates": [20.70850660966423, -67.2127155717678]}}]}